<?xml version="1.0" encoding="UTF-8"?>
<osm version="0.6" generator="openstreetmap-cgimap 2.1.0 (908590 spike-06.openstreetmap.org)" copyright="OpenStreetMap and contributors" attribution="http://www.openstreetmap.org/copyright" license="http://opendatacommons.org/licenses/odbl/1-0/">
 <bounds minlat="16.6943200" minlon="74.2137110" maxlat="16.6950910" maxlon="74.2150340"/>
 <node id="674647749" visible="true" version="2" changeset="40539264" timestamp="2016-07-07T10:51:46Z" user="mapusdotin" uid="3754246" lat="16.6947137" lon="74.2138527"/>
 <node id="674647751" visible="true" version="1" changeset="4235495" timestamp="2010-03-26T08:20:53Z" user="indigomc" uid="136860" lat="16.6946767" lon="74.2133613"/>
 <node id="674647753" visible="true" version="3" changeset="89601727" timestamp="2020-08-19T02:38:16Z" user="VLD256" uid="10979439" lat="16.6948262" lon="74.2153387"/>
 <node id="1265654214" visible="true" version="5" changeset="44475214" timestamp="2016-12-17T17:37:58Z" user="indigomc" uid="136860" lat="16.6924521" lon="74.2251222">
  <tag k="highway" v="crossing"/>
  <tag k="name" v="Mirajkar Tikti"/>
 </node>
 <node id="1279982435" visible="true" version="4" changeset="89690309" timestamp="2020-08-20T11:57:50Z" user="VLD256" uid="10979439" lat="16.6945521" lon="74.2144858"/>
 <node id="1279982460" visible="true" version="3" changeset="89601727" timestamp="2020-08-19T02:38:16Z" user="VLD256" uid="10979439" lat="16.6956053" lon="74.2176177"/>
 <node id="1279982469" visible="true" version="1" changeset="8108058" timestamp="2011-05-11T03:44:38Z" user="Mallik" uid="95882" lat="16.6957584" lon="74.2178063"/>
 <node id="1279982489" visible="true" version="5" changeset="89569501" timestamp="2020-08-18T10:49:15Z" user="VLD256" uid="10979439" lat="16.6942651" lon="74.2148318"/>
 <node id="1279982507" visible="true" version="4" changeset="89569501" timestamp="2020-08-18T10:49:15Z" user="VLD256" uid="10979439" lat="16.6917963" lon="74.2154421"/>
 <node id="1279982543" visible="true" version="3" changeset="89569501" timestamp="2020-08-18T10:49:15Z" user="VLD256" uid="10979439" lat="16.6936522" lon="74.2149460"/>
 <node id="1279982547" visible="true" version="4" changeset="89569501" timestamp="2020-08-18T10:49:15Z" user="VLD256" uid="10979439" lat="16.6930285" lon="74.2151729"/>
 <node id="1279982551" visible="true" version="1" changeset="8108058" timestamp="2011-05-11T03:44:43Z" user="Mallik" uid="95882" lat="16.6953340" lon="74.2173240"/>
 <node id="1279982572" visible="true" version="4" changeset="123577166" timestamp="2022-07-13T18:49:32Z" user="PlaneMad" uid="1306" lat="16.6871958" lon="74.2163830">
  <tag k="junction" v="yes"/>
  <tag k="name" v="Rajaram Chowk"/>
 </node>
 <node id="1279982579" visible="true" version="4" changeset="89569501" timestamp="2020-08-18T10:49:15Z" user="VLD256" uid="10979439" lat="16.6922392" lon="74.2153982"/>
 <node id="1279982584" visible="true" version="4" changeset="89690309" timestamp="2020-08-20T11:57:50Z" user="VLD256" uid="10979439" lat="16.6943910" lon="74.2146350"/>
 <node id="1280253084" visible="true" version="3" changeset="89600395" timestamp="2020-08-19T01:21:59Z" user="VLD256" uid="10979439" lat="16.6876824" lon="74.2162178"/>
 <node id="1280253088" visible="true" version="3" changeset="89569501" timestamp="2020-08-18T10:49:15Z" user="VLD256" uid="10979439" lat="16.6895191" lon="74.2158096"/>
 <node id="1280253109" visible="true" version="3" changeset="89569501" timestamp="2020-08-18T10:49:15Z" user="VLD256" uid="10979439" lat="16.6907670" lon="74.2155248"/>
 <node id="1280253111" visible="true" version="3" changeset="44475214" timestamp="2016-12-17T17:37:58Z" user="indigomc" uid="136860" lat="16.6861248" lon="74.2163509"/>
 <node id="1282542593" visible="true" version="2" changeset="40561897" timestamp="2016-07-08T07:17:20Z" user="mapusdotin" uid="3754246" lat="16.6945757" lon="74.2141019">
  <tag k="amenity" v="fast_food"/>
  <tag k="name" v="Rankala Choupati"/>
 </node>
 <node id="1282542594" visible="true" version="3" changeset="89566149" timestamp="2020-08-18T09:55:24Z" user="VLD256" uid="10979439" lat="16.6946519" lon="74.2129130">
  <tag k="leisure" v="playground"/>
  <tag k="name" v="Rankala Garden"/>
 </node>
 <node id="1282574755" visible="true" version="1" changeset="8129878" timestamp="2011-05-13T09:37:48Z" user="Mallik" uid="95882" lat="16.6962524" lon="74.2166713"/>
 <node id="1282574824" visible="true" version="2" changeset="40539264" timestamp="2016-07-07T10:51:46Z" user="mapusdotin" uid="3754246" lat="16.6949201" lon="74.2160941"/>
 <node id="1293268450" visible="true" version="4" changeset="89569501" timestamp="2020-08-18T10:49:15Z" user="VLD256" uid="10979439" lat="16.6915786" lon="74.2154661"/>
 <node id="1625589911" visible="true" version="4" changeset="183902257" timestamp="2026-06-10T04:09:12Z" user="PRITHVIRAJ SATYAWAN PATIL" uid="24155864" lat="16.6957201" lon="74.2138521"/>
 <node id="1625589923" visible="true" version="1" changeset="10636064" timestamp="2012-02-09T18:14:45Z" user="chaitanyaW" uid="525872" lat="16.6960774" lon="74.2159993"/>
 <node id="1625589929" visible="true" version="3" changeset="89569501" timestamp="2020-08-18T10:49:15Z" user="VLD256" uid="10979439" lat="16.6960421" lon="74.2157437"/>
 <node id="1625589982" visible="true" version="2" changeset="40539264" timestamp="2016-07-07T10:51:46Z" user="mapusdotin" uid="3754246" lat="16.6959709" lon="74.2150284"/>
 <node id="1625590163" visible="true" version="4" changeset="183902266" timestamp="2026-06-10T04:09:34Z" user="PRITHVIRAJ SATYAWAN PATIL" uid="24155864" lat="16.6961307" lon="74.2142238"/>
 <node id="3047643330" visible="true" version="3" changeset="89601727" timestamp="2020-08-19T02:38:16Z" user="VLD256" uid="10979439" lat="16.6955807" lon="74.2175955"/>
 <node id="4085046211" visible="true" version="5" changeset="89566149" timestamp="2020-08-18T09:55:24Z" user="VLD256" uid="10979439" lat="16.6947429" lon="74.2143072"/>
 <node id="4085046212" visible="true" version="4" changeset="89569501" timestamp="2020-08-18T10:49:15Z" user="VLD256" uid="10979439" lat="16.6880764" lon="74.2161808"/>
 <node id="4085046213" visible="true" version="4" changeset="44475214" timestamp="2016-12-17T17:37:59Z" user="indigomc" uid="136860" lat="16.6858850" lon="74.2163663"/>
 <node id="4085985852" visible="true" version="3" changeset="89566149" timestamp="2020-08-18T09:55:24Z" user="VLD256" uid="10979439" lat="16.6946127" lon="74.2129724"/>
 <node id="4087960474" visible="true" version="4" changeset="89569501" timestamp="2020-08-18T10:49:15Z" user="VLD256" uid="10979439" lat="16.6941401" lon="74.2149250"/>
 <node id="4087963337" visible="true" version="5" changeset="89569501" timestamp="2020-08-18T10:49:15Z" user="VLD256" uid="10979439" lat="16.6931081" lon="74.2151728"/>
 <node id="4087965971" visible="true" version="3" changeset="89569501" timestamp="2020-08-18T10:49:15Z" user="VLD256" uid="10979439" lat="16.6922675" lon="74.2152130"/>
 <node id="4087978883" visible="true" version="4" changeset="89569501" timestamp="2020-08-18T10:49:15Z" user="VLD256" uid="10979439" lat="16.6909322" lon="74.2155625"/>
 <node id="4088002593" visible="true" version="2" changeset="89569501" timestamp="2020-08-18T10:49:15Z" user="VLD256" uid="10979439" lat="16.6883658" lon="74.2160669"/>
 <node id="4088003873" visible="true" version="3" changeset="89603450" timestamp="2020-08-19T03:48:58Z" user="VLD256" uid="10979439" lat="16.6878586" lon="74.2161798"/>
 <node id="4248311287" visible="true" version="7" changeset="89600778" timestamp="2020-08-19T01:47:19Z" user="VLD256" uid="10979439" lat="16.6959159" lon="74.2216390"/>
 <node id="4248311288" visible="true" version="5" changeset="89569501" timestamp="2020-08-18T10:49:15Z" user="VLD256" uid="10979439" lat="16.6944782" lon="74.2218521"/>
 <node id="4248316389" visible="true" version="3" changeset="44475214" timestamp="2016-12-17T17:37:59Z" user="indigomc" uid="136860" lat="16.6943760" lon="74.2231933"/>
 <node id="4248316390" visible="true" version="5" changeset="89602216" timestamp="2020-08-19T03:01:07Z" user="VLD256" uid="10979439" lat="16.6940651" lon="74.2243293"/>
 <node id="4248316391" visible="true" version="4" changeset="44475214" timestamp="2016-12-17T17:37:59Z" user="indigomc" uid="136860" lat="16.6943231" lon="74.2238251"/>
 <node id="4248316392" visible="true" version="4" changeset="44475214" timestamp="2016-12-17T17:37:59Z" user="indigomc" uid="136860" lat="16.6941220" lon="74.2239319"/>
 <node id="4248316400" visible="true" version="4" changeset="44475214" timestamp="2016-12-17T17:37:59Z" user="indigomc" uid="136860" lat="16.6942832" lon="74.2238458"/>
 <node id="4248319647" visible="true" version="2" changeset="44475214" timestamp="2016-12-17T17:37:59Z" user="indigomc" uid="136860" lat="16.6940455" lon="74.2239728"/>
 <node id="4287547236" visible="true" version="4" changeset="89602216" timestamp="2020-08-19T03:01:07Z" user="VLD256" uid="10979439" lat="16.6960194" lon="74.2198766"/>
 <node id="4287547237" visible="true" version="4" changeset="89602216" timestamp="2020-08-19T03:01:07Z" user="VLD256" uid="10979439" lat="16.6959357" lon="74.2205028"/>
 <node id="4287780828" visible="true" version="1" changeset="40539264" timestamp="2016-07-07T10:51:45Z" user="mapusdotin" uid="3754246" lat="16.6946385" lon="74.2131379"/>
 <node id="4287780834" visible="true" version="2" changeset="89566149" timestamp="2020-08-18T09:55:24Z" user="VLD256" uid="10979439" lat="16.6950929" lon="74.2141293"/>
 <node id="4287780836" visible="true" version="1" changeset="40539264" timestamp="2016-07-07T10:51:45Z" user="mapusdotin" uid="3754246" lat="16.6959835" lon="74.2151490"/>
 <node id="4287780837" visible="true" version="3" changeset="183902189" timestamp="2026-06-10T04:06:11Z" user="PRITHVIRAJ SATYAWAN PATIL" uid="24155864" lat="16.6959823" lon="74.2151791"/>
 <node id="4290132661" visible="true" version="4" changeset="89569501" timestamp="2020-08-18T10:49:15Z" user="VLD256" uid="10979439" lat="16.6898294" lon="74.2157437"/>
 <node id="4290132664" visible="true" version="3" changeset="89569501" timestamp="2020-08-18T10:49:15Z" user="VLD256" uid="10979439" lat="16.6885836" lon="74.2160093"/>
 <node id="4299862925" visible="true" version="3" changeset="89602216" timestamp="2020-08-19T03:01:07Z" user="VLD256" uid="10979439" lat="16.6959431" lon="74.2206328"/>
 <node id="4313984997" visible="true" version="3" changeset="89601727" timestamp="2020-08-19T02:38:16Z" user="VLD256" uid="10979439" lat="16.6855377" lon="74.2225991"/>
 <node id="4313984998" visible="true" version="2" changeset="44475214" timestamp="2016-12-17T17:37:59Z" user="indigomc" uid="136860" lat="16.6855175" lon="74.2211656"/>
 <node id="4313984999" visible="true" version="2" changeset="44475214" timestamp="2016-12-17T17:37:59Z" user="indigomc" uid="136860" lat="16.6855092" lon="74.2204462"/>
 <node id="4313985001" visible="true" version="2" changeset="44475214" timestamp="2016-12-17T17:37:59Z" user="indigomc" uid="136860" lat="16.6855077" lon="74.2203109"/>
 <node id="4313985002" visible="true" version="3" changeset="89601727" timestamp="2020-08-19T02:38:16Z" user="VLD256" uid="10979439" lat="16.6857271" lon="74.2182727"/>
 <node id="4313985004" visible="true" version="3" changeset="89600395" timestamp="2020-08-19T01:21:59Z" user="VLD256" uid="10979439" lat="16.6855992" lon="74.2185927"/>
 <node id="4313985006" visible="true" version="2" changeset="44475214" timestamp="2016-12-17T17:37:59Z" user="indigomc" uid="136860" lat="16.6857947" lon="74.2180976"/>
 <node id="4313985011" visible="true" version="3" changeset="89601727" timestamp="2020-08-19T02:38:16Z" user="VLD256" uid="10979439" lat="16.6856438" lon="74.2185043"/>
 <node id="4313985012" visible="true" version="3" changeset="89600395" timestamp="2020-08-19T01:21:59Z" user="VLD256" uid="10979439" lat="16.6857671" lon="74.2181632"/>
 <node id="4314156700" visible="true" version="2" changeset="44475214" timestamp="2016-12-17T17:37:59Z" user="indigomc" uid="136860" lat="16.6871431" lon="74.2238822"/>
 <node id="4314199585" visible="true" version="2" changeset="44475214" timestamp="2016-12-17T17:37:59Z" user="indigomc" uid="136860" lat="16.6941450" lon="74.2256192"/>
 <node id="4314199586" visible="true" version="3" changeset="89602216" timestamp="2020-08-19T03:01:07Z" user="VLD256" uid="10979439" lat="16.6940711" lon="74.2249716"/>
 <node id="4316868811" visible="true" version="2" changeset="89566149" timestamp="2020-08-18T09:55:24Z" user="VLD256" uid="10979439" lat="16.6947224" lon="74.2136089"/>
 <node id="4316868812" visible="true" version="2" changeset="89566149" timestamp="2020-08-18T09:55:24Z" user="VLD256" uid="10979439" lat="16.6947422" lon="74.2139552"/>
 <node id="4316868813" visible="true" version="2" changeset="89566149" timestamp="2020-08-18T09:55:24Z" user="VLD256" uid="10979439" lat="16.6946838" lon="74.2132410"/>
 <node id="4316868814" visible="true" version="3" changeset="89569501" timestamp="2020-08-18T10:49:15Z" user="VLD256" uid="10979439" lat="16.6949080" lon="74.2159206"/>
 <node id="4316868815" visible="true" version="3" changeset="44532920" timestamp="2016-12-20T06:15:30Z" user="mapusdotin" uid="3754246" lat="16.6949161" lon="74.2168263">
  <tag k="source" v="AND"/>
 </node>
 <node id="4316878451" visible="true" version="3" changeset="89569501" timestamp="2020-08-18T10:49:15Z" user="VLD256" uid="10979439" lat="16.6940378" lon="74.2150152"/>
 <node id="4316878452" visible="true" version="2" changeset="44475214" timestamp="2016-12-17T17:38:00Z" user="indigomc" uid="136860" lat="16.6939039" lon="74.2148980"/>
 <node id="4316878453" visible="true" version="3" changeset="89566149" timestamp="2020-08-18T09:55:24Z" user="VLD256" uid="10979439" lat="16.6944682" lon="74.2146074"/>
 <node id="4316903664" visible="true" version="3" changeset="89569501" timestamp="2020-08-18T10:49:15Z" user="VLD256" uid="10979439" lat="16.6906037" lon="74.2156458"/>
 <node id="4316903665" visible="true" version="3" changeset="89569501" timestamp="2020-08-18T10:49:15Z" user="VLD256" uid="10979439" lat="16.6903065" lon="74.2157175"/>
 <node id="4316903666" visible="true" version="3" changeset="89569501" timestamp="2020-08-18T10:49:15Z" user="VLD256" uid="10979439" lat="16.6900465" lon="74.2157701"/>
 <node id="4316903667" visible="true" version="3" changeset="89569501" timestamp="2020-08-18T10:49:15Z" user="VLD256" uid="10979439" lat="16.6889165" lon="74.2160005"/>
 <node id="4316903668" visible="true" version="3" changeset="89569501" timestamp="2020-08-18T10:49:15Z" user="VLD256" uid="10979439" lat="16.6884816" lon="74.2161164"/>
 <node id="4316903669" visible="true" version="3" changeset="89600395" timestamp="2020-08-19T01:21:59Z" user="VLD256" uid="10979439" lat="16.6870587" lon="74.2163483"/>
 <node id="4316903670" visible="true" version="3" changeset="89600395" timestamp="2020-08-19T01:21:59Z" user="VLD256" uid="10979439" lat="16.6867588" lon="74.2163733"/>
 <node id="4316903671" visible="true" version="3" changeset="89601727" timestamp="2020-08-19T02:38:16Z" user="VLD256" uid="10979439" lat="16.6863414" lon="74.2163449"/>
 <node id="4316903679" visible="true" version="2" changeset="89569501" timestamp="2020-08-18T10:49:15Z" user="VLD256" uid="10979439" lat="16.6899288" lon="74.2157095"/>
 <node id="4316903681" visible="true" version="2" changeset="89569501" timestamp="2020-08-18T10:49:15Z" user="VLD256" uid="10979439" lat="16.6892593" lon="74.2158737"/>
 <node id="4316903682" visible="true" version="2" changeset="89569501" timestamp="2020-08-18T10:49:15Z" user="VLD256" uid="10979439" lat="16.6888495" lon="74.2159671"/>
 <node id="4316903683" visible="true" version="2" changeset="89569501" timestamp="2020-08-18T10:49:15Z" user="VLD256" uid="10979439" lat="16.6887556" lon="74.2159802"/>
 <node id="4316903688" visible="true" version="3" changeset="89569501" timestamp="2020-08-18T10:49:15Z" user="VLD256" uid="10979439" lat="16.6911006" lon="74.2155345"/>
 <node id="4316903989" visible="true" version="3" changeset="89569501" timestamp="2020-08-18T10:49:15Z" user="VLD256" uid="10979439" lat="16.6901649" lon="74.2157407"/>
 <node id="4316903990" visible="true" version="2" changeset="89569501" timestamp="2020-08-18T10:49:15Z" user="VLD256" uid="10979439" lat="16.6886823" lon="74.2159938"/>
 <node id="4316903991" visible="true" version="2" changeset="89569501" timestamp="2020-08-18T10:49:15Z" user="VLD256" uid="10979439" lat="16.6882465" lon="74.2160996"/>
 <node id="4316903992" visible="true" version="3" changeset="89603450" timestamp="2020-08-19T03:48:58Z" user="VLD256" uid="10979439" lat="16.6879994" lon="74.2161601"/>
 <node id="4317005709" visible="true" version="3" changeset="89569501" timestamp="2020-08-18T10:49:15Z" user="VLD256" uid="10979439" lat="16.6951554" lon="74.2216419"/>
 <node id="4317005710" visible="true" version="4" changeset="89569501" timestamp="2020-08-18T10:49:15Z" user="VLD256" uid="10979439" lat="16.6946008" lon="74.2218012"/>
 <node id="4317005711" visible="true" version="3" changeset="89602216" timestamp="2020-08-19T03:01:07Z" user="VLD256" uid="10979439" lat="16.6959516" lon="74.2211138"/>
 <node id="4317005712" visible="true" version="4" changeset="89602216" timestamp="2020-08-19T03:01:07Z" user="VLD256" uid="10979439" lat="16.6960057" lon="74.2202407"/>
 <node id="4317005713" visible="true" version="3" changeset="89602216" timestamp="2020-08-19T03:01:07Z" user="VLD256" uid="10979439" lat="16.6959000" lon="74.2192049"/>
 <node id="4317005714" visible="true" version="3" changeset="89602216" timestamp="2020-08-19T03:01:07Z" user="VLD256" uid="10979439" lat="16.6960267" lon="74.2195637"/>
 <node id="4317005715" visible="true" version="3" changeset="89602216" timestamp="2020-08-19T03:01:07Z" user="VLD256" uid="10979439" lat="16.6960571" lon="74.2197260"/>
 <node id="4317005716" visible="true" version="3" changeset="89602216" timestamp="2020-08-19T03:01:07Z" user="VLD256" uid="10979439" lat="16.6957964" lon="74.2188213"/>
 <node id="4317005717" visible="true" version="3" changeset="89602216" timestamp="2020-08-19T03:01:07Z" user="VLD256" uid="10979439" lat="16.6958304" lon="74.2190269"/>
 <node id="4317005718" visible="true" version="3" changeset="89602216" timestamp="2020-08-19T03:01:07Z" user="VLD256" uid="10979439" lat="16.6957438" lon="74.2185704"/>
 <node id="4319146454" visible="true" version="1" changeset="41004279" timestamp="2016-07-25T07:03:07Z" user="sharad patil" uid="4288965" lat="16.6943475" lon="74.2142715"/>
 <node id="4319146455" visible="true" version="1" changeset="41004279" timestamp="2016-07-25T07:03:07Z" user="sharad patil" uid="4288965" lat="16.6944168" lon="74.2140918"/>
 <node id="4319146456" visible="true" version="1" changeset="41004279" timestamp="2016-07-25T07:03:07Z" user="sharad patil" uid="4288965" lat="16.6944682" lon="74.2137377"/>
 <node id="4319146457" visible="true" version="1" changeset="41004279" timestamp="2016-07-25T07:03:07Z" user="sharad patil" uid="4288965" lat="16.6944297" lon="74.2134105"/>
 <node id="4319146458" visible="true" version="1" changeset="41004279" timestamp="2016-07-25T07:03:07Z" user="sharad patil" uid="4288965" lat="16.6943423" lon="74.2128902"/>
 <node id="4319146459" visible="true" version="1" changeset="41004279" timestamp="2016-07-25T07:03:07Z" user="sharad patil" uid="4288965" lat="16.6941188" lon="74.2122223"/>
 <node id="4319146460" visible="true" version="1" changeset="41004279" timestamp="2016-07-25T07:03:07Z" user="sharad patil" uid="4288965" lat="16.6939505" lon="74.2117435"/>
 <node id="4319146461" visible="true" version="1" changeset="41004279" timestamp="2016-07-25T07:03:07Z" user="sharad patil" uid="4288965" lat="16.6938028" lon="74.2113063"/>
 <node id="4319146462" visible="true" version="1" changeset="41004279" timestamp="2016-07-25T07:03:07Z" user="sharad patil" uid="4288965" lat="16.6936551" lon="74.2108772"/>
 <node id="4319146463" visible="true" version="1" changeset="41004279" timestamp="2016-07-25T07:03:07Z" user="sharad patil" uid="4288965" lat="16.6934494" lon="74.2102624"/>
 <node id="4319146464" visible="true" version="1" changeset="41004279" timestamp="2016-07-25T07:03:07Z" user="sharad patil" uid="4288965" lat="16.6933253" lon="74.2099134"/>
 <node id="4319146465" visible="true" version="1" changeset="41004279" timestamp="2016-07-25T07:03:07Z" user="sharad patil" uid="4288965" lat="16.6931620" lon="74.2094452"/>
 <node id="4319146466" visible="true" version="1" changeset="41004279" timestamp="2016-07-25T07:03:07Z" user="sharad patil" uid="4288965" lat="16.6930200" lon="74.2090868"/>
 <node id="4319146467" visible="true" version="1" changeset="41004279" timestamp="2016-07-25T07:03:07Z" user="sharad patil" uid="4288965" lat="16.6928925" lon="74.2087190"/>
 <node id="4319146468" visible="true" version="2" changeset="41004807" timestamp="2016-07-25T07:35:54Z" user="sharad patil" uid="4288965" lat="16.6927425" lon="74.2084896"/>
 <node id="4319146469" visible="true" version="1" changeset="41004279" timestamp="2016-07-25T07:03:07Z" user="sharad patil" uid="4288965" lat="16.6922339" lon="74.2083374"/>
 <node id="4319146470" visible="true" version="1" changeset="41004279" timestamp="2016-07-25T07:03:07Z" user="sharad patil" uid="4288965" lat="16.6918006" lon="74.2081388"/>
 <node id="4319146471" visible="true" version="1" changeset="41004279" timestamp="2016-07-25T07:03:07Z" user="sharad patil" uid="4288965" lat="16.6906713" lon="74.2073582"/>
 <node id="4319146472" visible="true" version="2" changeset="41004807" timestamp="2016-07-25T07:35:54Z" user="sharad patil" uid="4288965" lat="16.6895895" lon="74.2066126"/>
 <node id="4319146473" visible="true" version="2" changeset="41004807" timestamp="2016-07-25T07:35:54Z" user="sharad patil" uid="4288965" lat="16.6893739" lon="74.2066020"/>
 <node id="4319146474" visible="true" version="2" changeset="41004807" timestamp="2016-07-25T07:35:54Z" user="sharad patil" uid="4288965" lat="16.6891876" lon="74.2066875"/>
 <node id="4319146475" visible="true" version="3" changeset="177507136" timestamp="2026-01-21T07:00:51Z" user="Aniket K" uid="21905113" lat="16.6883994" lon="74.2056995"/>
 <node id="4319146476" visible="true" version="2" changeset="177507136" timestamp="2026-01-21T07:00:51Z" user="Aniket K" uid="21905113" lat="16.6876358" lon="74.2054228"/>
 <node id="4319146477" visible="true" version="2" changeset="177507136" timestamp="2026-01-21T07:00:51Z" user="Aniket K" uid="21905113" lat="16.6871841" lon="74.2056423"/>
 <node id="4319146478" visible="true" version="1" changeset="41004279" timestamp="2016-07-25T07:03:08Z" user="sharad patil" uid="4288965" lat="16.6870224" lon="74.2059963"/>
 <node id="4319146479" visible="true" version="2" changeset="177507136" timestamp="2026-01-21T07:00:51Z" user="Aniket K" uid="21905113" lat="16.6867335" lon="74.2069771"/>
 <node id="4319146480" visible="true" version="3" changeset="177507136" timestamp="2026-01-21T07:00:51Z" user="Aniket K" uid="21905113" lat="16.6863893" lon="74.2085209"/>
 <node id="4319146482" visible="true" version="3" changeset="177507136" timestamp="2026-01-21T07:00:51Z" user="Aniket K" uid="21905113" lat="16.6869256" lon="74.2099314"/>
 <node id="4319147100" visible="true" version="1" changeset="41004279" timestamp="2016-07-25T07:03:08Z" user="sharad patil" uid="4288965" lat="16.6881649" lon="74.2152574"/>
 <node id="4319147101" visible="true" version="1" changeset="41004279" timestamp="2016-07-25T07:03:08Z" user="sharad patil" uid="4288965" lat="16.6883172" lon="74.2155102"/>
 <node id="4319147102" visible="true" version="1" changeset="41004279" timestamp="2016-07-25T07:03:08Z" user="sharad patil" uid="4288965" lat="16.6883562" lon="74.2159889"/>
 <node id="4319147103" visible="true" version="1" changeset="41004279" timestamp="2016-07-25T07:03:08Z" user="sharad patil" uid="4288965" lat="16.6897172" lon="74.2156071"/>
 <node id="4319147104" visible="true" version="2" changeset="41004807" timestamp="2016-07-25T07:35:54Z" user="sharad patil" uid="4288965" lat="16.6919202" lon="74.2151561"/>
 <node id="4319147105" visible="true" version="2" changeset="41004807" timestamp="2016-07-25T07:35:54Z" user="sharad patil" uid="4288965" lat="16.6933866" lon="74.2148214"/>
 <node id="4319147106" visible="true" version="2" changeset="41004807" timestamp="2016-07-25T07:35:54Z" user="sharad patil" uid="4288965" lat="16.6939440" lon="74.2146823"/>
 <node id="4319147107" visible="true" version="2" changeset="41004807" timestamp="2016-07-25T07:35:54Z" user="sharad patil" uid="4288965" lat="16.6941731" lon="74.2145104"/>
 <node id="4319147121" visible="true" version="1" changeset="41004279" timestamp="2016-07-25T07:03:08Z" user="sharad patil" uid="4288965" lat="16.6880341" lon="74.2152072"/>
 <node id="4319147124" visible="true" version="1" changeset="41004279" timestamp="2016-07-25T07:03:08Z" user="sharad patil" uid="4288965" lat="16.6880956" lon="74.2152220"/>
 <node id="4319147125" visible="true" version="1" changeset="41004279" timestamp="2016-07-25T07:03:08Z" user="sharad patil" uid="4288965" lat="16.6881349" lon="74.2152383"/>
 <node id="4319147126" visible="true" version="1" changeset="41004279" timestamp="2016-07-25T07:03:08Z" user="sharad patil" uid="4288965" lat="16.6882520" lon="74.2153702"/>
 <node id="4319147127" visible="true" version="1" changeset="41004279" timestamp="2016-07-25T07:03:08Z" user="sharad patil" uid="4288965" lat="16.6882116" lon="74.2153058"/>
 <node id="4319147128" visible="true" version="1" changeset="41004279" timestamp="2016-07-25T07:03:08Z" user="sharad patil" uid="4288965" lat="16.6883380" lon="74.2157156"/>
 <node id="4319151521" visible="true" version="2" changeset="44475214" timestamp="2016-12-17T17:38:00Z" user="indigomc" uid="136860" lat="16.6859200" lon="74.2163641"/>
 <node id="4319151536" visible="true" version="2" changeset="44475214" timestamp="2016-12-17T17:38:00Z" user="indigomc" uid="136860" lat="16.6860542" lon="74.2163554"/>
 <node id="4319160522" visible="true" version="1" changeset="41004807" timestamp="2016-07-25T07:35:53Z" user="sharad patil" uid="4288965" lat="16.6908209" lon="74.2154026"/>
 <node id="4319160523" visible="true" version="1" changeset="41004807" timestamp="2016-07-25T07:35:53Z" user="sharad patil" uid="4288965" lat="16.6913728" lon="74.2152770"/>
 <node id="4319160524" visible="true" version="1" changeset="41004807" timestamp="2016-07-25T07:35:53Z" user="sharad patil" uid="4288965" lat="16.6926612" lon="74.2150016"/>
 <node id="4319160525" visible="true" version="1" changeset="41004807" timestamp="2016-07-25T07:35:53Z" user="sharad patil" uid="4288965" lat="16.6936698" lon="74.2147729"/>
 <node id="4319160526" visible="true" version="1" changeset="41004807" timestamp="2016-07-25T07:35:53Z" user="sharad patil" uid="4288965" lat="16.6944537" lon="74.2139264"/>
 <node id="4319160527" visible="true" version="1" changeset="41004807" timestamp="2016-07-25T07:35:53Z" user="sharad patil" uid="4288965" lat="16.6928521" lon="74.2086125"/>
 <node id="4319160528" visible="true" version="1" changeset="41004807" timestamp="2016-07-25T07:35:53Z" user="sharad patil" uid="4288965" lat="16.6901136" lon="74.2069504"/>
 <node id="4319160529" visible="true" version="1" changeset="41004807" timestamp="2016-07-25T07:35:53Z" user="sharad patil" uid="4288965" lat="16.6898281" lon="74.2067628"/>
 <node id="4319160530" visible="true" version="1" changeset="41004807" timestamp="2016-07-25T07:35:53Z" user="sharad patil" uid="4288965" lat="16.6894884" lon="74.2065851"/>
 <node id="4319160531" visible="true" version="1" changeset="41004807" timestamp="2016-07-25T07:35:53Z" user="sharad patil" uid="4288965" lat="16.6884905" lon="74.2062728"/>
 <node id="4319160532" visible="true" version="1" changeset="41004807" timestamp="2016-07-25T07:35:53Z" user="sharad patil" uid="4288965" lat="16.6884555" lon="74.2060227"/>
 <node id="4319160533" visible="true" version="1" changeset="41004807" timestamp="2016-07-25T07:35:53Z" user="sharad patil" uid="4288965" lat="16.6884477" lon="74.2061376"/>
 <node id="4319160534" visible="true" version="2" changeset="123584347" timestamp="2022-07-13T23:46:14Z" user="PlaneMad" uid="1306" lat="16.6887213" lon="74.2063862"/>
 <node id="4319160535" visible="true" version="1" changeset="41004807" timestamp="2016-07-25T07:35:53Z" user="sharad patil" uid="4288965" lat="16.6889608" lon="74.2065706"/>
 <node id="4391353386" visible="true" version="2" changeset="44475214" timestamp="2016-12-17T17:38:00Z" user="indigomc" uid="136860" lat="16.6943938" lon="74.2235169"/>
 <node id="4391353387" visible="true" version="2" changeset="44475214" timestamp="2016-12-17T17:38:00Z" user="indigomc" uid="136860" lat="16.6941872" lon="74.2238971"/>
 <node id="4558840950" visible="true" version="1" changeset="44475214" timestamp="2016-12-17T17:37:57Z" user="indigomc" uid="136860" lat="16.6897417" lon="74.2248759"/>
 <node id="4558840951" visible="true" version="1" changeset="44475214" timestamp="2016-12-17T17:37:57Z" user="indigomc" uid="136860" lat="16.6879510" lon="74.2241871"/>
 <node id="4558840952" visible="true" version="1" changeset="44475214" timestamp="2016-12-17T17:37:57Z" user="indigomc" uid="136860" lat="16.6917600" lon="74.2250376"/>
 <node id="4558840953" visible="true" version="1" changeset="44475214" timestamp="2016-12-17T17:37:57Z" user="indigomc" uid="136860" lat="16.6885580" lon="74.2245487"/>
 <node id="4558840954" visible="true" version="1" changeset="44475214" timestamp="2016-12-17T17:37:57Z" user="indigomc" uid="136860" lat="16.6861551" lon="74.2235117"/>
 <node id="4558840955" visible="true" version="1" changeset="44475214" timestamp="2016-12-17T17:37:57Z" user="indigomc" uid="136860" lat="16.6897815" lon="74.2248769"/>
 <node id="4558840956" visible="true" version="1" changeset="44475214" timestamp="2016-12-17T17:37:57Z" user="indigomc" uid="136860" lat="16.6876824" lon="74.2240843"/>
 <node id="4558840957" visible="true" version="1" changeset="44475214" timestamp="2016-12-17T17:37:58Z" user="indigomc" uid="136860" lat="16.6907245" lon="74.2247170"/>
 <node id="4558840958" visible="true" version="1" changeset="44475214" timestamp="2016-12-17T17:37:58Z" user="indigomc" uid="136860" lat="16.6920668" lon="74.2250601"/>
 <node id="4558840959" visible="true" version="1" changeset="44475214" timestamp="2016-12-17T17:37:58Z" user="indigomc" uid="136860" lat="16.6882154" lon="74.2243182"/>
 <node id="4558840960" visible="true" version="1" changeset="44475214" timestamp="2016-12-17T17:37:58Z" user="indigomc" uid="136860" lat="16.6882944" lon="74.2243587"/>
 <node id="4558840961" visible="true" version="1" changeset="44475214" timestamp="2016-12-17T17:37:58Z" user="indigomc" uid="136860" lat="16.6939738" lon="74.2269228"/>
 <node id="4558840962" visible="true" version="1" changeset="44475214" timestamp="2016-12-17T17:37:58Z" user="indigomc" uid="136860" lat="16.6938173" lon="74.2267363"/>
 <node id="4558840963" visible="true" version="1" changeset="44475214" timestamp="2016-12-17T17:37:58Z" user="indigomc" uid="136860" lat="16.6930710" lon="74.2257992"/>
 <node id="4558840964" visible="true" version="1" changeset="44475214" timestamp="2016-12-17T17:37:58Z" user="indigomc" uid="136860" lat="16.6922846" lon="74.2250770"/>
 <node id="4558840965" visible="true" version="2" changeset="89601727" timestamp="2020-08-19T02:38:16Z" user="VLD256" uid="10979439" lat="16.6855273" lon="74.2234481"/>
 <node id="4558840966" visible="true" version="1" changeset="44475214" timestamp="2016-12-17T17:37:58Z" user="indigomc" uid="136860" lat="16.6926277" lon="74.2252426"/>
 <node id="4558840967" visible="true" version="1" changeset="44475214" timestamp="2016-12-17T17:37:58Z" user="indigomc" uid="136860" lat="16.6925400" lon="74.2251325"/>
 <node id="4558840968" visible="true" version="1" changeset="44475214" timestamp="2016-12-17T17:37:58Z" user="indigomc" uid="136860" lat="16.6892804" lon="74.2248639"/>
 <node id="4558840969" visible="true" version="1" changeset="44475214" timestamp="2016-12-17T17:37:58Z" user="indigomc" uid="136860" lat="16.6927997" lon="74.2254586"/>
 <node id="4558840970" visible="true" version="1" changeset="44475214" timestamp="2016-12-17T17:37:58Z" user="indigomc" uid="136860" lat="16.6933331" lon="74.2261283"/>
 <node id="4558840971" visible="true" version="1" changeset="44475214" timestamp="2016-12-17T17:37:58Z" user="indigomc" uid="136860" lat="16.6929777" lon="74.2256821"/>
 <node id="4558840972" visible="true" version="1" changeset="44475214" timestamp="2016-12-17T17:37:58Z" user="indigomc" uid="136860" lat="16.6935997" lon="74.2264630"/>
 <node id="4558840973" visible="true" version="1" changeset="44475214" timestamp="2016-12-17T17:37:58Z" user="indigomc" uid="136860" lat="16.6934343" lon="74.2262554"/>
 <node id="4558840974" visible="true" version="1" changeset="44475214" timestamp="2016-12-17T17:37:58Z" user="indigomc" uid="136860" lat="16.6937940" lon="74.2267070"/>
 <node id="4558840975" visible="true" version="1" changeset="44475214" timestamp="2016-12-17T17:37:58Z" user="indigomc" uid="136860" lat="16.6914698" lon="74.2249428"/>
 <node id="4558840976" visible="true" version="1" changeset="44475214" timestamp="2016-12-17T17:37:58Z" user="indigomc" uid="136860" lat="16.6905675" lon="74.2247575"/>
 <node id="4558840977" visible="true" version="1" changeset="44475214" timestamp="2016-12-17T17:37:58Z" user="indigomc" uid="136860" lat="16.6923701" lon="74.2250837"/>
 <node id="4558840978" visible="true" version="1" changeset="44475214" timestamp="2016-12-17T17:37:58Z" user="indigomc" uid="136860" lat="16.6936713" lon="74.2265530"/>
 <node id="4558840979" visible="true" version="1" changeset="44475214" timestamp="2016-12-17T17:37:58Z" user="indigomc" uid="136860" lat="16.6888042" lon="74.2246870"/>
 <node id="4558840980" visible="true" version="1" changeset="44475214" timestamp="2016-12-17T17:37:58Z" user="indigomc" uid="136860" lat="16.6912148" lon="74.2248934"/>
 <node id="4558840981" visible="true" version="1" changeset="44475214" timestamp="2016-12-17T17:37:58Z" user="indigomc" uid="136860" lat="16.6931788" lon="74.2259345"/>
 <node id="4558840982" visible="true" version="1" changeset="44475214" timestamp="2016-12-17T17:37:58Z" user="indigomc" uid="136860" lat="16.6901521" lon="74.2248200"/>
 <node id="4558840983" visible="true" version="1" changeset="44475214" timestamp="2016-12-17T17:37:58Z" user="indigomc" uid="136860" lat="16.6938772" lon="74.2268114"/>
 <node id="4558840984" visible="true" version="1" changeset="44475214" timestamp="2016-12-17T17:37:58Z" user="indigomc" uid="136860" lat="16.6904647" lon="74.2247741"/>
 <node id="4558840985" visible="true" version="1" changeset="44475214" timestamp="2016-12-17T17:37:58Z" user="indigomc" uid="136860" lat="16.6886922" lon="74.2246717"/>
 <node id="4558840986" visible="true" version="1" changeset="44475214" timestamp="2016-12-17T17:37:58Z" user="indigomc" uid="136860" lat="16.6911106" lon="74.2248747"/>
 <node id="4558840987" visible="true" version="1" changeset="44475214" timestamp="2016-12-17T17:37:58Z" user="indigomc" uid="136860" lat="16.6910389" lon="74.2248619"/>
 <node id="4558840988" visible="true" version="1" changeset="44475214" timestamp="2016-12-17T17:37:58Z" user="indigomc" uid="136860" lat="16.6905942" lon="74.2247532"/>
 <node id="4558841189" visible="true" version="1" changeset="44475214" timestamp="2016-12-17T17:37:58Z" user="indigomc" uid="136860" lat="16.6909627" lon="74.2248322"/>
 <node id="4563025806" visible="true" version="1" changeset="44532920" timestamp="2016-12-20T06:15:29Z" user="mapusdotin" uid="3754246" lat="16.6949549" lon="74.2168724"/>
 <node id="4563025810" visible="true" version="1" changeset="44532920" timestamp="2016-12-20T06:15:29Z" user="mapusdotin" uid="3754246" lat="16.6950515" lon="74.2169875"/>
 <node id="7822669440" visible="true" version="1" changeset="89566149" timestamp="2020-08-18T09:55:24Z" user="VLD256" uid="10979439" lat="16.6947824" lon="74.2150713"/>
 <node id="7822669441" visible="true" version="1" changeset="89566149" timestamp="2020-08-18T09:55:24Z" user="VLD256" uid="10979439" lat="16.6950389" lon="74.2150070"/>
 <node id="7822669442" visible="true" version="1" changeset="89566149" timestamp="2020-08-18T09:55:24Z" user="VLD256" uid="10979439" lat="16.6954549" lon="74.2148456"/>
 <node id="7822669443" visible="true" version="1" changeset="89566149" timestamp="2020-08-18T09:55:24Z" user="VLD256" uid="10979439" lat="16.6948069" lon="74.2148128"/>
 <node id="7822669444" visible="true" version="1" changeset="89566149" timestamp="2020-08-18T09:55:24Z" user="VLD256" uid="10979439" lat="16.6947531" lon="74.2144110"/>
 <node id="7822669445" visible="true" version="1" changeset="89566149" timestamp="2020-08-18T09:55:24Z" user="VLD256" uid="10979439" lat="16.6947127" lon="74.2139552"/>
 <node id="7822669446" visible="true" version="1" changeset="89566149" timestamp="2020-08-18T09:55:24Z" user="VLD256" uid="10979439" lat="16.6946572" lon="74.2132472"/>
 <node id="7822669447" visible="true" version="1" changeset="89566149" timestamp="2020-08-18T09:55:24Z" user="VLD256" uid="10979439" lat="16.6946958" lon="74.2136151"/>
 <node id="7822669448" visible="true" version="1" changeset="89566149" timestamp="2020-08-18T09:55:24Z" user="VLD256" uid="10979439" lat="16.6947087" lon="74.2142705"/>
 <node id="7822669449" visible="true" version="1" changeset="89566149" timestamp="2020-08-18T09:55:24Z" user="VLD256" uid="10979439" lat="16.6946522" lon="74.2145981"/>
 <node id="7822669450" visible="true" version="1" changeset="89566149" timestamp="2020-08-18T09:55:24Z" user="VLD256" uid="10979439" lat="16.6947093" lon="74.2143427"/>
 <node id="7822669451" visible="true" version="2" changeset="89690309" timestamp="2020-08-20T11:57:50Z" user="VLD256" uid="10979439" lat="16.6944797" lon="74.2145610"/>
 <node id="7822669452" visible="true" version="1" changeset="89566149" timestamp="2020-08-18T09:55:24Z" user="VLD256" uid="10979439" lat="16.6947082" lon="74.2143112"/>
 <node id="7822669491" visible="true" version="1" changeset="89566149" timestamp="2020-08-18T09:55:24Z" user="VLD256" uid="10979439" lat="16.6945797" lon="74.2129359"/>
 <node id="7822746617" visible="true" version="2" changeset="177507136" timestamp="2026-01-21T07:00:51Z" user="Aniket K" uid="21905113" lat="16.6869570" lon="74.2093526"/>
 <node id="7822746618" visible="true" version="2" changeset="177507136" timestamp="2026-01-21T07:00:51Z" user="Aniket K" uid="21905113" lat="16.6865722" lon="74.2090814"/>
 <node id="7822834013" visible="true" version="1" changeset="89569501" timestamp="2020-08-18T10:49:15Z" user="VLD256" uid="10979439" lat="16.6948943" lon="74.2152776"/>
 <node id="7822834014" visible="true" version="1" changeset="89569501" timestamp="2020-08-18T10:49:15Z" user="VLD256" uid="10979439" lat="16.6948135" lon="74.2160141"/>
 <node id="7822834015" visible="true" version="1" changeset="89569501" timestamp="2020-08-18T10:49:15Z" user="VLD256" uid="10979439" lat="16.6949723" lon="74.2159907"/>
 <node id="7822834016" visible="true" version="2" changeset="89601727" timestamp="2020-08-19T02:38:16Z" user="VLD256" uid="10979439" lat="16.6948779" lon="74.2169635">
  <tag k="source" v="AND"/>
 </node>
 <node id="7822834017" visible="true" version="1" changeset="89569501" timestamp="2020-08-18T10:49:15Z" user="VLD256" uid="10979439" lat="16.6950060" lon="74.2167112">
  <tag k="source" v="AND"/>
 </node>
 <node id="7822834018" visible="true" version="1" changeset="89569501" timestamp="2020-08-18T10:49:15Z" user="VLD256" uid="10979439" lat="16.6949196" lon="74.2161916"/>
 <node id="7822834019" visible="true" version="1" changeset="89569501" timestamp="2020-08-18T10:49:15Z" user="VLD256" uid="10979439" lat="16.6950338" lon="74.2161604"/>
 <node id="7822834034" visible="true" version="2" changeset="89690309" timestamp="2020-08-20T11:57:50Z" user="VLD256" uid="10979439" lat="16.6942423" lon="74.2147594"/>
 <node id="7822834035" visible="true" version="2" changeset="89690309" timestamp="2020-08-20T11:57:50Z" user="VLD256" uid="10979439" lat="16.6941511" lon="74.2148281"/>
 <node id="7822834037" visible="true" version="2" changeset="89690309" timestamp="2020-08-20T11:57:50Z" user="VLD256" uid="10979439" lat="16.6940538" lon="74.2148613"/>
 <node id="7822834038" visible="true" version="1" changeset="89569501" timestamp="2020-08-18T10:49:15Z" user="VLD256" uid="10979439" lat="16.6939245" lon="74.2150429"/>
 <node id="7822834039" visible="true" version="1" changeset="89569501" timestamp="2020-08-18T10:49:15Z" user="VLD256" uid="10979439" lat="16.6935691" lon="74.2150801"/>
 <node id="7822834040" visible="true" version="1" changeset="89569501" timestamp="2020-08-18T10:49:15Z" user="VLD256" uid="10979439" lat="16.6929574" lon="74.2150684"/>
 <node id="7822834041" visible="true" version="1" changeset="89569501" timestamp="2020-08-18T10:49:15Z" user="VLD256" uid="10979439" lat="16.6931211" lon="74.2150292"/>
 <node id="7822834043" visible="true" version="1" changeset="89569501" timestamp="2020-08-18T10:49:15Z" user="VLD256" uid="10979439" lat="16.6917654" lon="74.2153160"/>
 <node id="7822834044" visible="true" version="1" changeset="89569501" timestamp="2020-08-18T10:49:15Z" user="VLD256" uid="10979439" lat="16.6915632" lon="74.2153507"/>
 <node id="7822834045" visible="true" version="1" changeset="89569501" timestamp="2020-08-18T10:49:15Z" user="VLD256" uid="10979439" lat="16.6911288" lon="74.2154514"/>
 <node id="7822834046" visible="true" version="1" changeset="89569501" timestamp="2020-08-18T10:49:15Z" user="VLD256" uid="10979439" lat="16.6908706" lon="74.2155034"/>
 <node id="7822834048" visible="true" version="1" changeset="89569501" timestamp="2020-08-18T10:49:15Z" user="VLD256" uid="10979439" lat="16.6905825" lon="74.2155719"/>
 <node id="7822834054" visible="true" version="1" changeset="89569501" timestamp="2020-08-18T10:49:15Z" user="VLD256" uid="10979439" lat="16.6902455" lon="74.2156538"/>
 <node id="7822834055" visible="true" version="1" changeset="89569501" timestamp="2020-08-18T10:49:15Z" user="VLD256" uid="10979439" lat="16.6901225" lon="74.2156787"/>
 <node id="7822834056" visible="true" version="1" changeset="89569501" timestamp="2020-08-18T10:49:15Z" user="VLD256" uid="10979439" lat="16.6900329" lon="74.2156940"/>
 <node id="7822834057" visible="true" version="1" changeset="89569501" timestamp="2020-08-18T10:49:15Z" user="VLD256" uid="10979439" lat="16.6898260" lon="74.2157278"/>
 <node id="7822834059" visible="true" version="2" changeset="89601727" timestamp="2020-08-19T02:38:16Z" user="VLD256" uid="10979439" lat="16.6958300" lon="74.2180218"/>
 <node id="7822834088" visible="true" version="1" changeset="89569501" timestamp="2020-08-18T10:49:15Z" user="VLD256" uid="10979439" lat="16.6880641" lon="74.2161458"/>
 <node id="7822834089" visible="true" version="2" changeset="89600395" timestamp="2020-08-19T01:21:59Z" user="VLD256" uid="10979439" lat="16.6885141" lon="74.2160289"/>
 <node id="7822834090" visible="true" version="2" changeset="89600395" timestamp="2020-08-19T01:21:59Z" user="VLD256" uid="10979439" lat="16.6884192" lon="74.2160550"/>
 <node id="7822834091" visible="true" version="1" changeset="89569501" timestamp="2020-08-18T10:49:15Z" user="VLD256" uid="10979439" lat="16.6889165" lon="74.2159561"/>
 <node id="7824658526" visible="true" version="1" changeset="89600778" timestamp="2020-08-19T01:47:19Z" user="VLD256" uid="10979439" lat="16.6955995" lon="74.2216346"/>
 <node id="7824713511" visible="true" version="1" changeset="89601727" timestamp="2020-08-19T02:38:16Z" user="VLD256" uid="10979439" lat="16.6958809" lon="74.2182389"/>
 <node id="7824713512" visible="true" version="2" changeset="89602216" timestamp="2020-08-19T03:01:07Z" user="VLD256" uid="10979439" lat="16.6960145" lon="74.2182036"/>
 <node id="7824713513" visible="true" version="1" changeset="89601727" timestamp="2020-08-19T02:38:16Z" user="VLD256" uid="10979439" lat="16.6959940" lon="74.2180297"/>
 <node id="7824713514" visible="true" version="1" changeset="89601727" timestamp="2020-08-19T02:38:16Z" user="VLD256" uid="10979439" lat="16.6959040" lon="74.2180961"/>
 <node id="7824713515" visible="true" version="1" changeset="89601727" timestamp="2020-08-19T02:38:16Z" user="VLD256" uid="10979439" lat="16.6958430" lon="74.2179378"/>
 <node id="7824713516" visible="true" version="1" changeset="89601727" timestamp="2020-08-19T02:38:16Z" user="VLD256" uid="10979439" lat="16.6957139" lon="74.2178245"/>
 <node id="7824713517" visible="true" version="1" changeset="89601727" timestamp="2020-08-19T02:38:16Z" user="VLD256" uid="10979439" lat="16.6957640" lon="74.2176300"/>
 <node id="7824713522" visible="true" version="1" changeset="89601727" timestamp="2020-08-19T02:38:16Z" user="VLD256" uid="10979439" lat="16.6958822" lon="74.2180236"/>
 <node id="7824742288" visible="true" version="1" changeset="89602216" timestamp="2020-08-19T03:01:07Z" user="VLD256" uid="10979439" lat="16.6959871" lon="74.2200477"/>
 <node id="7824742291" visible="true" version="1" changeset="89602216" timestamp="2020-08-19T03:01:07Z" user="VLD256" uid="10979439" lat="16.6959957" lon="74.2183991"/>
 <node id="7828089819" visible="true" version="1" changeset="89659401" timestamp="2020-08-20T01:56:59Z" user="Neena2309" uid="4785024" lat="16.6958898" lon="74.2180489"/>
 <node id="7829428460" visible="true" version="2" changeset="89958871" timestamp="2020-08-26T08:46:12Z" user="VLD103" uid="9124205" lat="16.6939038" lon="74.2109170"/>
 <node id="13468141091" visible="true" version="1" changeset="177426741" timestamp="2026-01-19T12:53:10Z" user="Aniket K" uid="21905113" lat="16.6944783" lon="74.2143095">
  <tag k="man_made" v="tower"/>
  <tag k="name" v="Rankala Tower"/>
  <tag k="tower:type" v="watchtower"/>
 </node>
 <node id="13468155806" visible="true" version="1" changeset="177426741" timestamp="2026-01-19T12:53:10Z" user="Aniket K" uid="21905113" lat="16.6893976" lon="74.2065985"/>
 <node id="13468155885" visible="true" version="1" changeset="177426741" timestamp="2026-01-19T12:53:10Z" user="Aniket K" uid="21905113" lat="16.6934745" lon="74.2149738"/>
 <node id="13468155886" visible="true" version="1" changeset="177426741" timestamp="2026-01-19T12:53:10Z" user="Aniket K" uid="21905113" lat="16.6936513" lon="74.2148243"/>
 <node id="13468155887" visible="true" version="1" changeset="177426741" timestamp="2026-01-19T12:53:10Z" user="Aniket K" uid="21905113" lat="16.6937755" lon="74.2147803"/>
 <node id="13468155888" visible="true" version="1" changeset="177426741" timestamp="2026-01-19T12:53:10Z" user="Aniket K" uid="21905113" lat="16.6939189" lon="74.2147422"/>
 <node id="13468155889" visible="true" version="1" changeset="177426741" timestamp="2026-01-19T12:53:10Z" user="Aniket K" uid="21905113" lat="16.6940557" lon="74.2146617"/>
 <node id="13468155890" visible="true" version="1" changeset="177426741" timestamp="2026-01-19T12:53:10Z" user="Aniket K" uid="21905113" lat="16.6941878" lon="74.2145546"/>
 <node id="13468155891" visible="true" version="1" changeset="177426741" timestamp="2026-01-19T12:53:10Z" user="Aniket K" uid="21905113" lat="16.6942978" lon="74.2144412"/>
 <node id="13468155892" visible="true" version="1" changeset="177426741" timestamp="2026-01-19T12:53:10Z" user="Aniket K" uid="21905113" lat="16.6943728" lon="74.2143215"/>
 <node id="13468155893" visible="true" version="1" changeset="177426741" timestamp="2026-01-19T12:53:10Z" user="Aniket K" uid="21905113" lat="16.6944768" lon="74.2141087"/>
 <node id="13468155894" visible="true" version="1" changeset="177426741" timestamp="2026-01-19T12:53:10Z" user="Aniket K" uid="21905113" lat="16.6945210" lon="74.2138812"/>
 <node id="13468155895" visible="true" version="1" changeset="177426741" timestamp="2026-01-19T12:53:10Z" user="Aniket K" uid="21905113" lat="16.6945049" lon="74.2135620"/>
 <node id="13468155896" visible="true" version="1" changeset="177426741" timestamp="2026-01-19T12:53:10Z" user="Aniket K" uid="21905113" lat="16.6944721" lon="74.2133478"/>
 <node id="13468155897" visible="true" version="1" changeset="177426741" timestamp="2026-01-19T12:53:10Z" user="Aniket K" uid="21905113" lat="16.6944117" lon="74.2129887"/>
 <node id="13468155898" visible="true" version="1" changeset="177426741" timestamp="2026-01-19T12:53:10Z" user="Aniket K" uid="21905113" lat="16.6943246" lon="74.2126730"/>
 <node id="13468155899" visible="true" version="1" changeset="177426741" timestamp="2026-01-19T12:53:10Z" user="Aniket K" uid="21905113" lat="16.6942072" lon="74.2123258"/>
 <node id="13468155900" visible="true" version="1" changeset="177426741" timestamp="2026-01-19T12:53:10Z" user="Aniket K" uid="21905113" lat="16.6940497" lon="74.2118890"/>
 <node id="13468155901" visible="true" version="1" changeset="177426741" timestamp="2026-01-19T12:53:10Z" user="Aniket K" uid="21905113" lat="16.6938458" lon="74.2112744"/>
 <node id="13468155902" visible="true" version="1" changeset="177426741" timestamp="2026-01-19T12:53:10Z" user="Aniket K" uid="21905113" lat="16.6935468" lon="74.2104085"/>
 <node id="13468155903" visible="true" version="1" changeset="177426741" timestamp="2026-01-19T12:53:10Z" user="Aniket K" uid="21905113" lat="16.6932209" lon="74.2094796"/>
 <node id="13468155904" visible="true" version="1" changeset="177426741" timestamp="2026-01-19T12:53:10Z" user="Aniket K" uid="21905113" lat="16.6931217" lon="74.2091620"/>
 <node id="13472850496" visible="true" version="1" changeset="177507136" timestamp="2026-01-21T07:00:51Z" user="Aniket K" uid="21905113" lat="16.6865027" lon="74.2086382"/>
 <node id="13472851332" visible="true" version="1" changeset="177507136" timestamp="2026-01-21T07:00:51Z" user="Aniket K" uid="21905113" lat="16.6880246" lon="74.2161545"/>
 <node id="13472851333" visible="true" version="1" changeset="177507136" timestamp="2026-01-21T07:00:51Z" user="Aniket K" uid="21905113" lat="16.6885226" lon="74.2059098"/>
 <way id="22840544" visible="true" version="32" changeset="123577166" timestamp="2022-07-13T18:49:32Z" user="PlaneMad" uid="1306">
  <nd ref="7824742291"/>
  <nd ref="7824713514"/>
  <nd ref="7828089819"/>
  <nd ref="7824713522"/>
  <nd ref="7824713515"/>
  <nd ref="1279982469"/>
  <nd ref="1279982460"/>
  <nd ref="3047643330"/>
  <nd ref="1279982551"/>
  <nd ref="4563025810"/>
  <nd ref="4563025806"/>
  <nd ref="4316868815"/>
  <nd ref="7822834018"/>
  <nd ref="1282574824"/>
  <nd ref="4316868814"/>
  <nd ref="674647753"/>
  <nd ref="7822669440"/>
  <nd ref="7822669450"/>
  <tag k="highway" v="trunk"/>
  <tag k="ref" v="NH166G"/>
  <tag k="ref:old" v="SH115"/>
 </way>
 <way id="149605527" visible="true" version="5" changeset="89566149" timestamp="2020-08-18T09:55:24Z" user="VLD256" uid="10979439">
  <nd ref="7822669448"/>
  <nd ref="4287780834"/>
  <nd ref="1625589911"/>
  <nd ref="1625590163"/>
  <nd ref="1625589982"/>
  <nd ref="4287780836"/>
  <nd ref="4287780837"/>
  <nd ref="1625589929"/>
  <nd ref="1625589923"/>
  <nd ref="1282574755"/>
  <tag k="highway" v="residential"/>
 </way>
 <way id="406438246" visible="true" version="31" changeset="89602216" timestamp="2020-08-19T03:01:07Z" user="VLD256" uid="10979439">
  <nd ref="7822669449"/>
  <nd ref="4316878453"/>
  <nd ref="1279982489"/>
  <nd ref="4087960474"/>
  <nd ref="4316878451"/>
  <nd ref="7822834038"/>
  <nd ref="7822834039"/>
  <nd ref="4087963337"/>
  <nd ref="1279982547"/>
  <nd ref="1279982579"/>
  <nd ref="1279982507"/>
  <nd ref="1293268450"/>
  <nd ref="4316903688"/>
  <nd ref="4087978883"/>
  <nd ref="4316903664"/>
  <nd ref="4316903665"/>
  <nd ref="4316903989"/>
  <nd ref="4316903666"/>
  <nd ref="4290132661"/>
  <nd ref="4316903667"/>
  <nd ref="4316903668"/>
  <nd ref="4085046212"/>
  <nd ref="4316903669"/>
  <nd ref="4316903670"/>
  <nd ref="4316903671"/>
  <nd ref="1280253111"/>
  <nd ref="4319151536"/>
  <nd ref="4319151521"/>
  <nd ref="4085046213"/>
  <nd ref="4313985006"/>
  <nd ref="4313985012"/>
  <nd ref="4313985002"/>
  <nd ref="4313985011"/>
  <nd ref="4313985004"/>
  <nd ref="4313985001"/>
  <nd ref="4313984999"/>
  <nd ref="4313984998"/>
  <nd ref="4313984997"/>
  <nd ref="4558840965"/>
  <nd ref="4558840954"/>
  <nd ref="4314156700"/>
  <nd ref="4558840956"/>
  <nd ref="4558840951"/>
  <nd ref="4558840959"/>
  <nd ref="4558840960"/>
  <nd ref="4558840953"/>
  <nd ref="4558840985"/>
  <nd ref="4558840979"/>
  <nd ref="4558840968"/>
  <nd ref="4558840950"/>
  <nd ref="4558840955"/>
  <nd ref="4558840982"/>
  <nd ref="4558840984"/>
  <nd ref="4558840976"/>
  <nd ref="4558840988"/>
  <nd ref="4558840957"/>
  <nd ref="4558841189"/>
  <nd ref="4558840987"/>
  <nd ref="4558840986"/>
  <nd ref="4558840980"/>
  <nd ref="4558840975"/>
  <nd ref="4558840952"/>
  <nd ref="4558840958"/>
  <nd ref="4558840964"/>
  <nd ref="4558840977"/>
  <nd ref="1265654214"/>
  <nd ref="4558840967"/>
  <nd ref="4558840966"/>
  <nd ref="4558840969"/>
  <nd ref="4558840971"/>
  <nd ref="4558840963"/>
  <nd ref="4558840981"/>
  <nd ref="4558840970"/>
  <nd ref="4558840973"/>
  <nd ref="4558840972"/>
  <nd ref="4558840978"/>
  <nd ref="4558840974"/>
  <nd ref="4558840962"/>
  <nd ref="4558840983"/>
  <nd ref="4558840961"/>
  <nd ref="4314199585"/>
  <nd ref="4314199586"/>
  <nd ref="4248316390"/>
  <nd ref="4248319647"/>
  <nd ref="4248316392"/>
  <nd ref="4391353387"/>
  <nd ref="4248316400"/>
  <nd ref="4248316391"/>
  <nd ref="4391353386"/>
  <nd ref="4248316389"/>
  <nd ref="4248311288"/>
  <nd ref="4317005710"/>
  <nd ref="4317005709"/>
  <nd ref="7824658526"/>
  <nd ref="4248311287"/>
  <nd ref="4317005711"/>
  <nd ref="4299862925"/>
  <nd ref="4287547237"/>
  <nd ref="4317005712"/>
  <nd ref="7824742288"/>
  <nd ref="4287547236"/>
  <nd ref="4317005715"/>
  <nd ref="4317005714"/>
  <nd ref="4317005713"/>
  <nd ref="4317005717"/>
  <nd ref="4317005716"/>
  <nd ref="4317005718"/>
  <nd ref="7824713511"/>
  <nd ref="7822834059"/>
  <nd ref="7824713516"/>
  <nd ref="7822834016"/>
  <nd ref="7822834014"/>
  <nd ref="7822669449"/>
  <tag k="landuse" v="residential"/>
  <tag k="name" v="Shivaji Peth"/>
 </way>
 <way id="406541335" visible="true" version="19" changeset="89602216" timestamp="2020-08-19T03:01:07Z" user="VLD256" uid="10979439">
  <nd ref="1282542594"/>
  <nd ref="4085985852"/>
  <nd ref="4316868813"/>
  <nd ref="4316868811"/>
  <nd ref="4316868812"/>
  <nd ref="4085046211"/>
  <nd ref="7822669444"/>
  <nd ref="7822669443"/>
  <nd ref="7822834013"/>
  <nd ref="7822834015"/>
  <nd ref="7822834019"/>
  <nd ref="7822834017"/>
  <nd ref="7824713517"/>
  <nd ref="7824713513"/>
  <nd ref="7824713512"/>
 </way>
 <way id="432987662" visible="true" version="12" changeset="177507136" timestamp="2026-01-21T07:00:51Z" user="Aniket K" uid="21905113">
  <nd ref="4319147121"/>
  <nd ref="4319147124"/>
  <nd ref="4319147125"/>
  <nd ref="4319147100"/>
  <nd ref="4319147127"/>
  <nd ref="4319147126"/>
  <nd ref="4319147101"/>
  <nd ref="4319147128"/>
  <nd ref="4319147102"/>
  <nd ref="4319147103"/>
  <nd ref="4319160522"/>
  <nd ref="4319160523"/>
  <nd ref="4319147104"/>
  <nd ref="4319160524"/>
  <nd ref="4319147105"/>
  <nd ref="4319160525"/>
  <nd ref="4319147106"/>
  <nd ref="4319147107"/>
  <nd ref="4319146454"/>
  <nd ref="4319146455"/>
  <nd ref="4319160526"/>
  <nd ref="4319146456"/>
  <nd ref="4319146457"/>
  <nd ref="4319146458"/>
  <nd ref="4319146459"/>
  <nd ref="4319146460"/>
  <nd ref="4319146461"/>
  <nd ref="4319146462"/>
  <nd ref="4319146463"/>
  <nd ref="4319146464"/>
  <nd ref="4319146465"/>
  <nd ref="4319146466"/>
  <nd ref="4319146467"/>
  <nd ref="4319160527"/>
  <nd ref="4319146468"/>
  <nd ref="4319146469"/>
  <nd ref="4319146470"/>
  <nd ref="4319146471"/>
  <nd ref="4319160528"/>
  <nd ref="4319160529"/>
  <nd ref="4319146472"/>
  <nd ref="4319160530"/>
  <nd ref="13468155806"/>
  <nd ref="4319146473"/>
  <nd ref="4319146474"/>
  <nd ref="4319160535"/>
  <nd ref="4319160534"/>
  <nd ref="4319160531"/>
  <nd ref="4319160533"/>
  <nd ref="4319160532"/>
  <nd ref="13472851333"/>
  <nd ref="4319146475"/>
  <nd ref="4319146476"/>
  <nd ref="4319146477"/>
  <nd ref="4319146478"/>
  <nd ref="4319146479"/>
  <nd ref="4319146480"/>
  <nd ref="13472850496"/>
  <nd ref="7822746618"/>
  <nd ref="7822746617"/>
  <nd ref="4319146482"/>
 </way>
 <way id="836723562" visible="true" version="6" changeset="177507136" timestamp="2026-01-21T07:00:51Z" user="Aniket K" uid="21905113">
  <nd ref="1279982572"/>
  <nd ref="1280253084"/>
  <nd ref="4088003873"/>
  <nd ref="4316903992"/>
  <nd ref="13472851332"/>
  <nd ref="7822834088"/>
  <nd ref="4316903991"/>
  <nd ref="4088002593"/>
  <nd ref="7822834090"/>
  <nd ref="7822834089"/>
  <nd ref="4290132664"/>
  <nd ref="4316903990"/>
  <nd ref="4316903683"/>
  <nd ref="4316903682"/>
  <nd ref="7822834091"/>
  <nd ref="4316903681"/>
  <nd ref="1280253088"/>
  <nd ref="7822834057"/>
  <nd ref="4316903679"/>
  <nd ref="7822834056"/>
  <nd ref="7822834055"/>
  <nd ref="7822834054"/>
  <nd ref="7822834048"/>
  <nd ref="1280253109"/>
  <nd ref="7822834046"/>
  <nd ref="7822834045"/>
  <nd ref="7822834044"/>
  <nd ref="7822834043"/>
  <nd ref="4087965971"/>
  <nd ref="7822834040"/>
  <nd ref="7822834041"/>
  <nd ref="13468155885"/>
  <nd ref="1279982543"/>
  <nd ref="4316878452"/>
  <nd ref="7822834037"/>
  <nd ref="7822834035"/>
  <nd ref="7822834034"/>
  <nd ref="1279982584"/>
  <nd ref="7822669451"/>
  <nd ref="1279982435"/>
  <nd ref="7822669450"/>
  <tag k="highway" v="primary"/>
 </way>
 <way id="838156309" visible="true" version="1" changeset="89566149" timestamp="2020-08-18T09:55:24Z" user="VLD256" uid="10979439">
  <nd ref="7822669440"/>
  <nd ref="7822669441"/>
  <nd ref="7822669442"/>
  <tag k="highway" v="residential"/>
  <tag k="source" v="digitalglobe"/>
 </way>
 <way id="1078297849" visible="true" version="1" changeset="123577166" timestamp="2022-07-13T18:49:31Z" user="PlaneMad" uid="1306">
  <nd ref="7822669450"/>
  <nd ref="7822669452"/>
  <nd ref="7822669448"/>
  <nd ref="7822669445"/>
  <nd ref="674647749"/>
  <nd ref="7822669447"/>
  <nd ref="674647751"/>
  <nd ref="7822669446"/>
  <nd ref="4287780828"/>
  <nd ref="7822669491"/>
  <nd ref="7829428460"/>
  <tag k="highway" v="trunk"/>
  <tag k="ref" v="NH166G"/>
  <tag k="ref:old" v="SH115"/>
 </way>
 <way id="1468455474" visible="true" version="1" changeset="177426741" timestamp="2026-01-19T12:53:10Z" user="Aniket K" uid="21905113">
  <nd ref="13468155885"/>
  <nd ref="13468155886"/>
  <nd ref="13468155887"/>
  <nd ref="13468155888"/>
  <nd ref="13468155889"/>
  <nd ref="13468155890"/>
  <nd ref="13468155891"/>
  <nd ref="13468155892"/>
  <nd ref="13468155893"/>
  <nd ref="13468155894"/>
  <nd ref="13468155895"/>
  <nd ref="13468155896"/>
  <nd ref="13468155897"/>
  <nd ref="13468155898"/>
  <nd ref="13468155899"/>
  <nd ref="13468155900"/>
  <nd ref="13468155901"/>
  <nd ref="13468155902"/>
  <nd ref="13468155903"/>
  <nd ref="13468155904"/>
  <tag k="highway" v="footway"/>
 </way>
 <relation id="8051538" visible="true" version="10" changeset="130710456" timestamp="2022-12-31T06:55:22Z" user="Heinz_V" uid="91490">
  <member type="way" ref="430724416" role=""/>
  <member type="way" ref="430726431" role=""/>
  <member type="way" ref="1019350778" role=""/>
  <member type="way" ref="430724421" role=""/>
  <member type="way" ref="430724420" role=""/>
  <member type="way" ref="61974285" role=""/>
  <member type="way" ref="838996769" role=""/>
  <member type="way" ref="297430861" role=""/>
  <member type="way" ref="302634749" role=""/>
  <member type="way" ref="302634715" role=""/>
  <member type="way" ref="303655847" role=""/>
  <member type="way" ref="302634743" role=""/>
  <member type="way" ref="302634751" role=""/>
  <member type="way" ref="303655848" role=""/>
  <member type="way" ref="302634716" role=""/>
  <member type="way" ref="302634747" role=""/>
  <member type="way" ref="302634752" role=""/>
  <member type="way" ref="302634750" role=""/>
  <member type="way" ref="302634745" role=""/>
  <member type="way" ref="297430884" role=""/>
  <member type="way" ref="297430834" role=""/>
  <member type="way" ref="838996770" role=""/>
  <member type="way" ref="462765730" role=""/>
  <member type="way" ref="1078297849" role=""/>
  <member type="way" ref="22840544" role=""/>
  <tag k="is_in:state" v="MH"/>
  <tag k="network" v="IN:NH"/>
  <tag k="ref" v="166G"/>
  <tag k="route" v="road"/>
  <tag k="type" v="route"/>
  <tag k="wikidata" v="Q62078516"/>
  <tag k="wikipedia" v="en:National Highway 166G (India)"/>
 </relation>
 <relation id="11516227" visible="true" version="1" changeset="89566149" timestamp="2020-08-18T09:55:24Z" user="VLD256" uid="10979439">
  <member type="way" ref="406541335" role="outer"/>
  <member type="way" ref="838156331" role="outer"/>
  <tag k="landuse" v="residential"/>
  <tag k="name" v="Uttareshwar Peth"/>
  <tag k="type" v="multipolygon"/>
 </relation>
 <relation id="20121996" visible="true" version="1" changeset="177507136" timestamp="2026-01-21T07:00:51Z" user="Aniket K" uid="21905113">
  <member type="way" ref="432987662" role="outer"/>
  <member type="way" ref="1469048695" role="outer"/>
  <member type="way" ref="1469048703" role="outer"/>
  <member type="way" ref="1469048698" role="outer"/>
  <member type="way" ref="1469048697" role="outer"/>
  <member type="way" ref="1469048696" role="outer"/>
  <tag k="name" v="Rankala Lake"/>
  <tag k="natural" v="water"/>
  <tag k="type" v="multipolygon"/>
  <tag k="water" v="lake"/>
  <tag k="wikidata" v="Q7293225"/>
 </relation>
</osm>
